NORAD_CAT_ID,OBJECT_NAME,OBJECT_TYPE,EPOCH,MEAN_MOTION,ECCENTRICITY,INCLINATION,RA_OF_ASC_NODE,ARG_OF_PERICENTER,MEAN_ANOMALY,BSTAR,MEAN_MOTION_DOT,MEAN_MOTION_DDOT,TLE_LINE0,TLE_LINE1,TLE_LINE2,SEMIMAJOR_AXIS,PERIOD,APOGEE,PERIGEE,DECAYED
55308.0,STARLINK-5292,PAYLOAD,2023-04-21 21:13:29,15.69910567,0.0003621,69.9956,169.254,272.7878,87.2903,3.7204e-05,4.26e-05,0.0,0 STARLINK-5292,1 55308U 23010AR  23111.88436968  .00004260  00000-0  37204-4 0  9999,2 55308  69.9956 169.2540 0003621 272.7878  87.2903 15.69910567 15001,6737.29,91.725,361.594,356.715,0.0
55308.0,STARLINK-5292,PAYLOAD,2023-04-22 04:52:15,15.69912284,0.0003623,69.9965,168.359,272.5486,87.5294,2.9944e-05,3.387e-05,0.0,0 STARLINK-5292,1 55308U 23010AR  23112.20295618  .00003387  00000-0  29944-4 0  9992,2 55308  69.9965 168.3590 0003623 272.5486  87.5294 15.69912284 16242,6737.285,91.725,361.591,356.709,0.0
55308.0,STARLINK-5292,PAYLOAD,2023-04-22 15:34:31,15.6992123,0.0003155,69.9978,167.1049,269.7812,90.3023,1.8142e-05,1.969e-05,0.0,0 STARLINK-5292,1 55308U 23010AR  23112.64897055  .00001969  00000-0  18142-4 0  9995,2 55308  69.9978 167.1049 0003155 269.7812  90.3023 15.69921230 16314,6737.259,91.724,361.25,356.999,0.0
55308.0,STARLINK-5292,PAYLOAD,2023-04-23 12:59:03,15.69926114,0.0003184,69.997,164.5968,264.2096,95.8737,-3.6963e-06,-6.57e-06,0.0,0 STARLINK-5292,1 55308U 23010AR  23113.54100757 -.00000657  00000-0 -36963-5 0  9998,2 55308  69.9970 164.5968 0003184 264.2096  95.8737 15.69926114 15264,6737.245,91.724,361.256,356.965,0.0
55308.0,STARLINK-5292,PAYLOAD,2023-04-24 02:44:48,15.69938569,0.0003132,69.9985,162.9853,266.1519,93.9318,2.2197e-05,2.459e-05,0.0,0 STARLINK-5292,1 55308U 23010AR  23114.11444488  .00002459  00000-0  22197-4 0  9997,2 55308  69.9985 162.9853 0003132 266.1519  93.9318 15.69938569 16542,6737.21,91.723,361.185,356.965,0.0
55308.0,STARLINK-5292,PAYLOAD,2023-04-25 12:23:24,15.69882144,0.0003023,69.9996,159.044,271.3198,88.7651,-6.9389e-05,-8.532e-05,0.0,0 STARLINK-5292,1 55308U 23010AR  23115.51625310 -.00008532  00000-0 -69389-4 0  9991,2 55308  69.9996 159.0440 0003023 271.3198  88.7651 15.69882144 15574,6737.371,91.727,361.273,357.199,0.0
55308.0,STARLINK-5292,PAYLOAD,2023-04-25 13:55:08,15.69899098,0.0003372,69.9988,158.8637,275.0679,85.0132,-3.3217e-05,-4.201e-05,0.0,0 STARLINK-5292,1 55308U 23010AR  23115.57996417 -.00004201  00000-0 -33217-4 0  9996,2 55308  69.9988 158.8637 0003372 275.0679  85.0132 15.69899098 16775,6737.323,91.726,361.46,356.916,0.0
55308.0,STARLINK-5292,PAYLOAD,2023-04-26 11:19:39,15.69944725,0.0001778,69.9991,156.3561,295.4788,64.6224,7.4992e-05,8.82e-05,0.0,0 STARLINK-5292,1 55308U 23010AR  23116.47198243  .00008820  00000-0  74992-4 0  9991,2 55308  69.9991 156.3561 0001778 295.4788  64.6224 15.69944725 16912,6737.192,91.723,360.255,357.859,0.0
55308.0,STARLINK-5292,PAYLOAD,2023-04-26 14:23:08,15.69945884,0.0003417,70.0006,155.999,270.2774,89.803,0.00015024,0.00017907,0.0,0 STARLINK-5292,1 55308U 23010AR  23116.59940786  .00017907  00000-0  15024-3 0  9997,2 55308  70.0006 155.9990 0003417 270.2774  89.8030 15.69945884 16934,6737.189,91.723,361.356,356.752,0.0
55308.0,STARLINK-5292,PAYLOAD,2023-04-27 11:47:41,15.69911048,0.0002985,69.9975,153.4903,272.243,87.8424,5.816e-05,6.782e-05,0.0,0 STARLINK-5292,1 55308U 23010AR  23117.49145564  .00006782  00000-0  58160-4 0  9996,2 55308  69.9975 153.4903 0002985 272.2430  87.8424 15.69911048 17079,6737.288,91.725,361.165,357.142,0.0
55308.0,STARLINK-5292,PAYLOAD,2023-04-27 14:51:12,15.69913267,0.0003146,69.997,153.1317,275.2645,84.8191,4.1263e-05,4.749e-05,0.0,0 STARLINK-5292,1 55308U 23010AR  23117.61889097  .00004749  00000-0  41263-4 0  9993,2 55308  69.9970 153.1317 0003146 275.2645  84.8191 15.69913267 15904,6737.282,91.725,361.267,357.028,0.0
55308.0,STARLINK-5292,PAYLOAD,2023-04-28 04:36:57,15.69937315,0.0003065,69.9969,151.518,266.8505,93.234,-2.1107e-05,-2.751e-05,0.0,0 STARLINK-5292,1 55308U 23010AR  23118.19233473 -.00002751  00000-0 -21107-4 0  9996,2 55308  69.9969 151.5180 0003065 266.8505  93.2340 15.69937315 15992,6737.213,91.723,361.143,357.013,0.0
55308.0,STARLINK-5292,PAYLOAD,2023-04-28 12:15:43,15.69935613,0.0003087,69.9967,150.6221,267.2853,92.7989,-2.2142e-05,-2.875e-05,0.0,0 STARLINK-5292,1 55308U 23010AR  23118.51091641 -.00002875  00000-0 -22142-4 0  9998,2 55308  69.9967 150.6221 0003087 267.2853  92.7989 15.69935613 17232,6737.218,91.724,361.163,357.003,0.0
55308.0,STARLINK-5292,PAYLOAD,2023-04-29 05:04:59,15.69921467,0.0003405,69.9965,148.6511,264.0934,95.9874,6.396e-06,5.56e-06,0.0,0 STARLINK-5292,1 55308U 23010AR  23119.21179563  .00000556  00000-0  63960-5 0  9992,2 55308  69.9965 148.6511 0003405 264.0934  95.9874 15.69921467 16158,6737.259,91.724,361.418,356.83,0.0
55308.0,STARLINK-5292,PAYLOAD,2023-04-29 11:11:59,15.69926086,0.000331,69.9964,147.9344,264.2491,95.8327,1.0621e-05,1.065e-05,0.0,0 STARLINK-5292,1 55308U 23010AR  23119.46665903  .00001065  00000-0  10621-4 0  9998,2 55308  69.9964 147.9344 0003310 264.2491  95.8327 15.69926086 17388,6737.245,91.724,361.34,356.88,0.0
55308.0,STARLINK-5292,PAYLOAD,2023-04-30 11:40:01,15.69920865,0.0003164,69.9959,145.0679,267.7338,92.3495,7.7046e-06,7.14e-06,0.0,0 STARLINK-5292,1 55308U 23010AR  23120.48613160  .00000714  00000-0  77046-5 0  9995,2 55308  69.9959 145.0679 0003164 267.7338  92.3495 15.69920865 17542,6737.26,91.724,361.257,356.994,0.0
55308.0,STARLINK-5292,PAYLOAD,2023-04-30 13:11:47,15.69920336,0.000326,69.996,144.8887,272.4297,87.6525,3.9981e-06,2.68e-06,0.0,0 STARLINK-5292,1 55308U 23010AR  23120.54984975  .00000268  00000-0  39981-5 0  9997,2 55308  69.9960 144.8887 0003260 272.4297  87.6525 15.69920336 16369,6737.262,91.724,361.323,356.931,0.0
55308.0,STARLINK-5292,PAYLOAD,2023-05-01 12:08:03,15.69925272,0.0003085,69.9966,142.2039,262.1778,97.9068,5.1583e-06,4.08e-06,0.0,0 STARLINK-5292,1 55308U 23010AR  23121.50559805  .00000408  00000-0  51583-5 0  9992,2 55308  69.9966 142.2039 0003085 262.1778  97.9068 15.69925272 17700,6737.248,91.724,361.191,357.034,0.0
55308.0,STARLINK-5292,PAYLOAD,2023-05-01 13:39:48,15.69927761,0.0003217,69.9963,142.0246,264.8045,95.2783,3.377e-06,1.93e-06,0.0,0 STARLINK-5292,1 55308U 23010AR  23121.56931326  .00000193  00000-0  33770-5 0  9999,2 55308  69.9963 142.0246 0003217 264.8045  95.2783 15.69927761 16527,6737.241,91.724,361.273,356.938,0.0
55308.0,STARLINK-5292,PAYLOAD,2023-05-02 12:36:05,15.69922336,0.0002913,69.9973,139.3361,270.1676,89.9186,3.8369e-06,2.49e-06,0.0,0 STARLINK-5292,1 55308U 23010AR  23122.52506708  .00000249  00000-0  38369-5 0  9999,2 55308  69.9973 139.3361 0002913 270.1676  89.9186 15.69922336 17865,6737.256,91.724,361.084,357.159,0.0
55308.0,STARLINK-5292,PAYLOAD,2023-05-03 11:32:22,15.69924814,0.0003192,69.9967,136.6494,266.4194,93.6637,5.0784e-06,3.98e-06,0.0,0 STARLINK-5292,1 55308U 23010AR  23123.48081707  .00000398  00000-0  50784-5 0  9992,2 55308  69.9967 136.6494 0003192 266.4194  93.6637 15.69924814 18012,6737.249,91.724,361.265,356.964,0.0
55308.0,STARLINK-5292,PAYLOAD,2023-05-04 02:49:54,15.69918395,0.0002674,69.9988,134.8581,265.0222,95.0668,9.9392e-06,9.82e-06,0.0,0 STARLINK-5292,1 55308U 23010AR  23124.11798676  .00000982  00000-0  99392-5 0  9990,2 55308  69.9988 134.8581 0002674 265.0222  95.0668 15.69918395 16928,6737.267,91.725,360.934,357.331,0.0
55308.0,STARLINK-5292,PAYLOAD,2023-05-04 12:00:24,15.69935699,0.0003104,69.9977,133.7833,265.6197,94.4644,-9.3831e-06,-1.341e-05,0.0,0 STARLINK-5292,1 55308U 23010AR  23124.50027958 -.00001341  00000-0 -93831-5 0  9995,2 55308  69.9977 133.7833 0003104 265.6197  94.4644 15.69935699 16989,6737.218,91.724,361.174,356.992,0.0
55308.0,STARLINK-5292,PAYLOAD,2023-05-05 07:53:11,15.6991995,0.000308,69.9977,131.4547,249.5001,110.5865,8.7631e-06,8.41e-06,0.0,0 STARLINK-5292,1 55308U 23010AR  23125.32860445  .00000841  00000-0  87631-5 0  9995,2 55308  69.9977 131.4547 0003080 249.5001 110.5865 15.69919950 17117,6737.263,91.724,361.203,357.053,0.0
55308.0,STARLINK-5292,PAYLOAD,2023-05-05 12:28:26,15.69919226,0.0003112,69.9977,130.9175,247.8358,112.2507,6.4309e-06,5.6e-06,0.0,0 STARLINK-5292,1 55308U 23010AR  23125.51975565  .00000560  00000-0  64309-5 0  9991,2 55308  69.9977 130.9175 0003112 247.8358 112.2507 15.69919226 18333,6737.265,91.724,361.227,357.033,0.0
55308.0,STARLINK-5292,PAYLOAD,2023-05-06 09:52:57,15.69929895,0.000342,69.9978,128.4093,260.4423,99.6386,1.1799e-05,1.206e-05,0.0,0 STARLINK-5292,1 55308U 23010AR  23126.41178206  .00001206  00000-0  11799-4 0  9990,2 55308  69.9978 128.4093 0003420 260.4423  99.6386 15.69929895 18472,6737.235,91.724,361.404,356.795,0.0
55308.0,STARLINK-5292,PAYLOAD,2023-05-07 02:42:14,15.69922497,0.0003393,69.9976,126.4369,261.9169,98.1641,9.3968e-06,9.17e-06,0.0,0 STARLINK-5292,1 55308U 23010AR  23127.11267070  .00000917  00000-0  93968-5 0  9993,2 55308  69.9976 126.4369 0003393 261.9169  98.1641 15.69922497 17395,6737.256,91.724,361.407,356.835,0.0
55308.0,STARLINK-5292,PAYLOAD,2023-05-07 08:49:15,15.69920492,0.0003444,69.9981,125.7206,262.1616,97.9189,6.1819e-06,5.3e-06,0.0,0 STARLINK-5292,1 55308U 23010AR  23127.36754002  .00000530  00000-0  61819-5 0  9997,2 55308  69.9981 125.7206 0003444 262.1616  97.9189 15.69920492 18624,6737.261,91.724,361.447,356.806,0.0
55308.0,STARLINK-5292,PAYLOAD,2023-05-08 03:10:16,15.69914042,0.0003188,69.9987,123.571,256.3069,103.7771,2.4913e-05,2.783e-05,0.0,0 STARLINK-5292,1 55308U 23010AR  23128.13214014  .00002783  00000-0  24913-4 0  9992,2 55308  69.9987 123.5710 0003188 256.3069 103.7771 15.69914042 17556,6737.28,91.725,361.293,356.997,0.0
55308.0,STARLINK-5292,PAYLOAD,2023-05-08 09:17:16,15.69931316,0.0003415,69.9974,122.856,265.4089,94.6716,8.9843e-06,8.68e-06,0.0,0 STARLINK-5292,1 55308U 23010AR  23128.38700046  .00000868  00000-0  89843-5 0  9990,2 55308  69.9974 122.8560 0003415 265.4089  94.6716 15.69931316 17597,6737.231,91.724,361.396,356.795,0.0
